[
    {
        "Altitude(m)": 707013.0565923294,
        "Argument of Periapsis(deg)": 0.009112096949301655,
        "Eccentricity": 0.0,
        "Inclination(deg)": 45.0,
        "Latitude(deg)": -16.514585511202956,
        "Longitude(deg)": 167.23557670093456,
        "Mean Anomaly(deg)": -23.500726682015333,
        "RAAN(deg)": 284.9913984468334,
        "Satellite Name": "Constellation 1 1274",
        "Satellite Number": 1274,
        "Semi-Major Axis(m)": 7083131.272910544,
        "Time(s)": 152
    },
    {
        "Altitude(m)": 707000.7956623944,
        "Argument of Periapsis(deg)": 0.009172044955547059,
        "Eccentricity": 0.0,
        "Inclination(deg)": 45.0,
        "Latitude(deg)": -16.473352758945875,
        "Longitude(deg)": 167.27801950087002,
        "Mean Anomaly(deg)": -23.440025541765397,
        "RAAN(deg)": 284.9913418576678,
        "Satellite Name": "Constellation 1 1274",
        "Satellite Number": 1274,
        "Semi-Major Axis(m)": 7083131.272910544,
        "Time(s)": 153
    },
    {
        "Altitude(m)": 706988.5463755453,
        "Argument of Periapsis(deg)": 0.009231992961792466,
        "Eccentricity": 0.0,
        "Inclination(deg)": 45.0,
        "Latitude(deg)": -16.432109408535545,
        "Longitude(deg)": 167.3204427313895,
        "Mean Anomaly(deg)": -23.379324401515607,
        "RAAN(deg)": 284.9912852685023,
        "Satellite Name": "Constellation 1 1274",
        "Satellite Number": 1274,
        "Semi-Major Axis(m)": 7083131.272910544,
        "Time(s)": 154
    },
    {
        "Altitude(m)": 706976.3087697165,
        "Argument of Periapsis(deg)": 0.009291940968037872,
        "Eccentricity": 0.0,
        "Inclination(deg)": 45.0,
        "Latitude(deg)": -16.39085549188056,
        "Longitude(deg)": 167.36284644774076,
        "Mean Anomaly(deg)": -23.31862326126567,
        "RAAN(deg)": 284.9912286793367,
        "Satellite Name": "Constellation 1 1274",
        "Satellite Number": 1274,
        "Semi-Major Axis(m)": 7083131.272910544,
        "Time(s)": 155
    },
    {
        "Altitude(m)": 706964.0828827912,
        "Argument of Periapsis(deg)": 0.009351888974283276,
        "Eccentricity": 0.0,
        "Inclination(deg)": 45.0,
        "Latitude(deg)": -16.349591040851863,
        "Longitude(deg)": 167.40523053704393,
        "Mean Anomaly(deg)": -23.257922121015735,
        "RAAN(deg)": 284.9911720901712,
        "Satellite Name": "Constellation 1 1274",
        "Satellite Number": 1274,
        "Semi-Major Axis(m)": 7083131.272910544,
        "Time(s)": 156
    },
    {
        "Altitude(m)": 706951.8687525791,
        "Argument of Periapsis(deg)": 0.00941183698052868,
        "Eccentricity": 0.0,
        "Inclination(deg)": 45.0,
        "Latitude(deg)": -16.30831608728345,
        "Longitude(deg)": 167.44759539067985,
        "Mean Anomaly(deg)": -23.197220980765852,
        "RAAN(deg)": 284.9911155010056,
        "Satellite Name": "Constellation 1 1274",
        "Satellite Number": 1274,
        "Semi-Major Axis(m)": 7083131.272910544,
        "Time(s)": 157
    },
    {
        "Altitude(m)": 706939.6664168406,
        "Argument of Periapsis(deg)": 0.009471784986774088,
        "Eccentricity": 0.0,
        "Inclination(deg)": 45.0,
        "Latitude(deg)": -16.267030662970704,
        "Longitude(deg)": 167.4899408957085,
        "Mean Anomaly(deg)": -23.136519840515962,
        "RAAN(deg)": 284.99105891183996,
        "Satellite Name": "Constellation 1 1274",
        "Satellite Number": 1274,
        "Semi-Major Axis(m)": 7083131.272910544,
        "Time(s)": 158
    },
    {
        "Altitude(m)": 706927.4759132732,
        "Argument of Periapsis(deg)": 0.009531732993019492,
        "Eccentricity": 0.0,
        "Inclination(deg)": 45.0,
        "Latitude(deg)": -16.225734799671926,
        "Longitude(deg)": 167.5322671072567,
        "Mean Anomaly(deg)": -23.075818700266026,
        "RAAN(deg)": 284.99100232267443,
        "Satellite Name": "Constellation 1 1274",
        "Satellite Number": 1274,
        "Semi-Major Axis(m)": 7083131.272910544,
        "Time(s)": 159
    },
    {
        "Altitude(m)": 706915.2972795077,
        "Argument of Periapsis(deg)": 0.009591680999264898,
        "Eccentricity": 0.0,
        "Inclination(deg)": 45.0,
        "Latitude(deg)": -16.18442852910808,
        "Longitude(deg)": 167.5745740804207,
        "Mean Anomaly(deg)": -23.015117560016087,
        "RAAN(deg)": 284.99094573350885,
        "Satellite Name": "Constellation 1 1274",
        "Satellite Number": 1274,
        "Semi-Major Axis(m)": 7083131.272910544,
        "Time(s)": 160
    },
    {
        "Altitude(m)": 706903.1305531228,
        "Argument of Periapsis(deg)": 0.009651629005510304,
        "Eccentricity": 0.0,
        "Inclination(deg)": 45.0,
        "Latitude(deg)": -16.14311188296294,
        "Longitude(deg)": 167.61686187026666,
        "Mean Anomaly(deg)": -22.9544164197663,
        "RAAN(deg)": 284.9908891443433,
        "Satellite Name": "Constellation 1 1274",
        "Satellite Number": 1274,
        "Semi-Major Axis(m)": 7083131.272910544,
        "Time(s)": 161
    },
    {
        "Altitude(m)": 706890.9757716323,
        "Argument of Periapsis(deg)": 0.00971157701175571,
        "Eccentricity": 0.0,
        "Inclination(deg)": 45.0,
        "Latitude(deg)": -16.10178489288278,
        "Longitude(deg)": 167.65913053183118,
        "Mean Anomaly(deg)": -22.893715279516364,
        "RAAN(deg)": 284.99083255517775,
        "Satellite Name": "Constellation 1 1274",
        "Satellite Number": 1274,
        "Semi-Major Axis(m)": 7083131.272910544,
        "Time(s)": 162
    },
    {
        "Altitude(m)": 706878.8329724837,
        "Argument of Periapsis(deg)": 0.009771525018001118,
        "Eccentricity": 0.0,
        "Inclination(deg)": 45.0,
        "Latitude(deg)": -16.06044759047697,
        "Longitude(deg)": 167.7013799520228,
        "Mean Anomaly(deg)": -22.83301413926648,
        "RAAN(deg)": 284.9907759660121,
        "Satellite Name": "Constellation 1 1274",
        "Satellite Number": 1274,
        "Semi-Major Axis(m)": 7083131.272910544,
        "Time(s)": 163
    },
    {
        "Altitude(m)": 706866.7021930726,
        "Argument of Periapsis(deg)": 0.00983147302424652,
        "Eccentricity": 0.0,
        "Inclination(deg)": 45.0,
        "Latitude(deg)": -16.019100007318652,
        "Longitude(deg)": 167.74361052201158,
        "Mean Anomaly(deg)": -22.772312999016595,
        "RAAN(deg)": 284.9907193768466,
        "Satellite Name": "Constellation 1 1274",
        "Satellite Number": 1274,
        "Semi-Major Axis(m)": 7083131.272910544,
        "Time(s)": 164
    },
    {
        "Altitude(m)": 706854.5834707285,
        "Argument of Periapsis(deg)": 0.009891421030491928,
        "Eccentricity": 0.0,
        "Inclination(deg)": 45.0,
        "Latitude(deg)": -15.977742174943169,
        "Longitude(deg)": 167.78582212864634,
        "Mean Anomaly(deg)": -22.711611858766656,
        "RAAN(deg)": 284.990662787681,
        "Satellite Name": "Constellation 1 1274",
        "Satellite Number": 1274,
        "Semi-Major Axis(m)": 7083131.272910544,
        "Time(s)": 165
    },
    {
        "Altitude(m)": 706842.4768427189,
        "Argument of Periapsis(deg)": 0.009951369036737332,
        "Eccentricity": 0.0,
        "Inclination(deg)": 45.0,
        "Latitude(deg)": -15.936374124849669,
        "Longitude(deg)": 167.82801482684246,
        "Mean Anomaly(deg)": -22.65091071851672,
        "RAAN(deg)": 284.9906061985155,
        "Satellite Name": "Constellation 1 1274",
        "Satellite Number": 1274,
        "Semi-Major Axis(m)": 7083131.272910544,
        "Time(s)": 166
    },
    {
        "Altitude(m)": 706830.382346244,
        "Argument of Periapsis(deg)": 0.010011317042982738,
        "Eccentricity": 0.0,
        "Inclination(deg)": 45.0,
        "Latitude(deg)": -15.89499588850067,
        "Longitude(deg)": 167.8701886714855,
        "Mean Anomaly(deg)": -22.59020957826688,
        "RAAN(deg)": 284.9905496093499,
        "Satellite Name": "Constellation 1 1274",
        "Satellite Number": 1274,
        "Semi-Major Axis(m)": 7083131.272910544,
        "Time(s)": 167
    },
    {
        "Altitude(m)": 706818.3000184561,
        "Argument of Periapsis(deg)": 0.010071265049228144,
        "Eccentricity": 0.0,
        "Inclination(deg)": 45.0,
        "Latitude(deg)": -15.853607497322056,
        "Longitude(deg)": 167.9123437174308,
        "Mean Anomaly(deg)": -22.529508438016943,
        "RAAN(deg)": 284.99049302018426,
        "Satellite Name": "Constellation 1 1274",
        "Satellite Number": 1274,
        "Semi-Major Axis(m)": 7083131.272910544,
        "Time(s)": 168
    },
    {
        "Altitude(m)": 706806.2298964335,
        "Argument of Periapsis(deg)": 0.01013121305547355,
        "Eccentricity": 0.0,
        "Inclination(deg)": 45.0,
        "Latitude(deg)": -15.812208982703437,
        "Longitude(deg)": 167.9544800195039,
        "Mean Anomaly(deg)": -22.468807297767007,
        "RAAN(deg)": 284.99043643101874,
        "Satellite Name": "Constellation 1 1274",
        "Satellite Number": 1274,
        "Semi-Major Axis(m)": 7083131.272910544,
        "Time(s)": 169
    },
    {
        "Altitude(m)": 706794.172017198,
        "Argument of Periapsis(deg)": 0.010191161061718957,
        "Eccentricity": 0.0,
        "Inclination(deg)": 45.0,
        "Latitude(deg)": -15.770800375998295,
        "Longitude(deg)": 167.9965976324999,
        "Mean Anomaly(deg)": -22.40810615751717,
        "RAAN(deg)": 284.99037984185316,
        "Satellite Name": "Constellation 1 1274",
        "Satellite Number": 1274,
        "Semi-Major Axis(m)": 7083131.272910544,
        "Time(s)": 170
    }
]